#dP2024  9  2  0  0  0.00000000      96 __u+U IGS20 FIT  IAC
## 2330  86400.00000000   900.00000000 60555 0.0000000000000
+  133   C01C02C03C04C05C06C07C08C09C10C11C12C13C14C16C19C20
+        C21C22C23C24C25C26C27C28C29C30C32C33C34C35C36C37C38
+        C39C40C41C42C43C44C45C59C60C62E02E03E04E05E06E07E08
+        E09E10E11E12E13E14E15E18E19E21E24E25E26E27E29E30E31
+        E33E34E36G01G02G03G04G05G06G07G08G09G10G11G12G13G14
+        G15G16G17G18G19G20G21G22G23G24G25G26G27G28G29G30G31
+        G32J02J03J04J07R01R02R03R04R05R06R07R08R09R10R11R12
+        R13R14R15R16R17R18R19R20R21R22R23R24R25R26  0  0  0
++        17 17 16 17 17  9 10 10 10 10  9  9  9  9  9  7  7
++         7  7  7  7  7  7  7  7  7  7  7  7  7  7  7  8  8
++         8  8  7  7  7  7  7 17 17 17  4  4  4  4  4  4  4
++         4  5  4  5  4  4  4  5  4  4  5  5  4  4  4  4  4
++         5  4  5  6  4  4  4  3  4  4  4  4  4  4  4  4  4
++         4  4  4  4  4  4  4  4  4  4  4  4  4  4  4  4  4
++         4 10 11 11 17  7  6  6  6  6 15  6  6  6 15  6  6
++        15  6  6  6  6  6  7  7  6  6 15  6  8  8  0  0  0
%c M  cc GPS ccc cccc cccc cccc cccc ccccc ccccc ccccc ccccc
%c cc cc ccc ccc cccc cccc cccc cccc ccccc ccccc ccccc ccccc
%f  0.0000000  0.000000000  0.00000000000  0.000000000000000
%f  0.0000000  0.000000000  0.00000000000  0.000000000000000
%i    0    0    0    0      0      0      0      0         0
%i    0    0    0    0      0      0      0      0         0
/* INFORMATION & ANALYSIS CENTER (IAC)            RAPID DATA
/* S/V CLOCKS ARE ALIGNED TO GNSS TIME                      
/* G:C1WC2W R:C1PC2P E:C1XC5X C:C2IC6I J:C1CC2S             
/* PCV:IGS20_2317 OL/AL:FES2004  NONE     YN ORB:CoN CLK:CoN
*  2024 09 02  8  0  0.00000000
PC01 -34335.621188  24452.897260    186.423225    919.518786
PC02   4369.664334  41916.665828   1960.195174    915.392266
PC03 -14866.333732  39479.066344    645.586706    840.633883
PC04 -39639.932265  14301.190932   -305.561704    437.121125
PC05  21927.456371  35986.662372   1669.294008   -403.906190
PC06  -1820.940361  36118.782544  22002.103021    740.212750
PC07 -13773.714295  26543.066592 -29660.259678   -408.352857
PC08 -17572.897882  36472.009218  11274.037515   -494.280703
PC09   3867.354777  39925.717103  14486.443461   -270.055268
PC10  -5870.688854  27474.614500 -31132.667342   -156.954515
PC11  -3318.936736 -20710.839144  18487.154280    742.494128
PC12  14010.370286  -7753.390251  22894.227957   -265.678230
PC13 -10231.544908  36394.743037  18525.031513    435.762610
PC14   6750.548765 -17002.138817 -21056.515930   -150.416268
PC16  -4154.712926  34194.604798  24864.622524   -773.552056
PC19   3943.475832  15070.516160  23165.220298   -931.571052
PC20 -14993.833262  16465.149361  16835.224478   -872.807245
PC21  26739.603411  -7924.343635    427.970985   -935.745781
PC22  21867.641598   4946.408066  16584.188825    110.818124
PC23 -12866.250418 -12781.408404  21220.181497   -826.130220
PC24  11299.156903 -24271.911977  -7928.902721    840.340923
PC25  -1556.935922 -26295.698471   9235.474592    495.019933
PC26  16836.182468  -8465.323152 -20610.089900   -342.941997
PC27 -20122.678921   -195.600075 -19351.634647    363.236923
PC28 -22807.018622 -14374.187899  -7219.961181    280.998825
PC29  11898.880660  21927.698351 -12500.477799    329.952933
PC30  -6877.713913  15041.972082 -22484.968359   -187.621203
PC32 -26717.303608   8069.496657   -555.822779   -720.962561
PC33  -3969.845732 -15093.017746 -23141.977627   -972.113863
PC34   5265.350494 -16174.541227  22108.994702    512.288097
PC35  23279.176794  13884.291888   6687.441165    271.670525
PC36   1277.945015  26150.954238  -9612.480184    174.243768
PC37 -17013.113727   8021.883927  20618.911554   -901.866543
PC38 -21590.030245  36066.090115   1847.258530    176.928076
PC39  -7065.874584  30041.669124  28903.066583     -9.734577
PC40 -19246.535918  19725.243117 -31969.938023    -88.936854
PC41 -21281.930704  -5476.088373 -17166.931590   -915.661669
PC42  16594.929255 -16162.549954 -15505.817630   -471.080583
PC43 -11012.260434 -21957.697925  13220.119271     84.374205
PC44  20292.556966   -509.486941  19144.532165    581.264492
PC45  12486.973245  13248.473400 -21141.112770   -125.522031
PC59 -32282.726780  27101.755969   1254.436615     -0.202775
PC60   7283.345461  41508.157647    913.450207     -0.052308
PC62 -39646.261162  14363.362606   -619.027260     -0.480954
PE02  18393.252446   4565.819229 -22738.905123    156.092196
PE03  27197.237747  11093.742759   3590.004420   -137.660587
PE04 -25456.692975   2888.366539  14832.178905    -23.021142
PE05  12889.083340  18208.901041  19449.510524   4780.547626
PE06 -18467.208143   9723.694392  20972.036989    -21.562827
PE07   9393.413054 -14576.895941 -23988.245185   -139.846936
PE08  25856.798668  -2193.805109 -14234.046553   -328.950168
PE09  -9474.566103  14389.829981  24067.023492   -574.801417
PE10 -10643.909166  16818.494608 -21910.406138   -653.287642
PE11  -4410.351638  25110.387613 -15052.490547   1825.332778
PE12 -14752.361551   7085.277261 -24669.572496  -1192.681536
PE13   4710.519854 -24759.589168  15527.449993    -24.393268
PE14 -26536.019309   6813.759355 -16850.054042    201.220610
PE15  14884.324680  -6343.666352  24791.393264   -124.626323
PE18  12823.224578 -11371.138935  17364.713519 999999.999999
PE19 -26364.271660 -12307.804231  -5448.992517    555.879143
PE21  -1949.036453 -19249.436505  22406.313250   -614.511244
PE24 -16366.204294  23064.033647  -8718.048341   -964.560029
PE25   1512.568813  19478.190158 -22225.551897      8.637263
PE26  -8357.031590 -28229.549196  -3122.864274    559.210705
PE27  16208.926739 -23132.614765   8868.699099   -441.942239
PE29 -13228.257990 -18328.640860 -19115.150942    -27.208215
PE30  24634.189908 -13239.651742  -9715.888767   -674.476892
PE31 -24581.380157  13311.690503   9744.567204    -34.516636
PE33 -16066.074161 -15970.797556 -19058.292940     15.043105
PE34  16186.401057  15463.045207  19352.438113   -131.969325
PE36   8011.582677  28374.485576   2613.275573   -277.612601
PG01   -711.416810  19280.464956 -18483.926282    207.281554
PG02  16392.911908   1701.194767  21364.623587   -366.575068
PG03  21183.602704 -10337.365790  11961.961436    522.978520
PG04  24451.696927   -511.520797 -10520.960539    435.907577
PG05 -15417.105143  -4506.840672 -21349.579320   -185.236398
PG06  -4645.290587 -25880.810048   3383.024351     58.556126
PG07   8684.580699 -16633.414415 -18088.133082    -43.071944
PG08  26014.406662   6356.859880  -1110.008468    338.083659
PG09  16983.283731  -9322.911284 -18284.398335    339.320460
PG10  -6285.426447  20875.651967  15142.206637   -112.302246
PG11 -12523.358900 -20844.751669 -10733.753626   -729.686752
PG12 -21489.287656   6164.344631  14025.304838   -534.994257
PG13 -21480.073897 -14164.491038  -7301.467300    674.253086
PG14   9907.912955 -21611.710013  11651.773225    486.303201
PG15 -26418.130942  -3426.294524  -1394.413816    199.554368
PG16  12342.636263   9527.145632 -21870.455097   -192.075787
PG17   1226.553489 -15479.731248  21955.203483    638.583999
PG18  -8297.746567  17211.499271 -18332.760016   -650.717044
PG19  -8728.208656 -16856.731936  18593.579029    532.696826
PG20  -8173.847910 -14268.533109 -20817.955518    371.053645
PG21  17484.837161   8530.346336  18937.227129    102.509149
PG22   3442.305757 -19669.396560  18070.925285    -57.700382
PG23 -15979.932217  20796.620137   3383.470753    311.028614
PG24 -17145.418699  -4113.086114  19536.424398   -486.794792
PG25 -19960.123258  16596.632215   4582.552383    499.532519
PG26   2740.664052  18666.706683 -18708.803537     87.866223
PG27  20701.152387  13030.648618 -11150.609997    -33.630778
PG28   4105.084832  25633.295530   5599.256493   -395.904617
PG29 -20048.507012   5377.496881 -16688.380341   -580.434947
PG30   1391.829512 -24023.470826 -10788.911814   -328.937153
PG31  10913.325371  23118.383069  -6647.058888   -225.193126
PG32   1423.688177  15775.250835  21561.553303   -600.894396
PJ02 -36300.558281  20874.215419   -416.045850     -0.923117
PJ03 -20495.793531  23869.751329 -23439.095986     -2.515710
PJ04 -27443.902482  29964.247022  17004.114810     22.396023
PJ07 -25377.924228  33669.707674     44.010230     -0.000650
PR01 -24048.031368   6348.780389   5679.215512     96.438168
PR02 -12490.855321  10546.378650  19593.583517    -24.444115
PR03   6622.149125   9867.107591  22619.076401    106.777080
PR04  21418.850159   3835.640536  13349.007908    252.767716
PR05  24996.024041  -4124.419671  -3090.825667    137.048873
PR06  10837.970377 -11330.687495 -20144.325335   -178.702130
PR07  -7142.171935  -9720.734379 -22433.312862     90.065831
PR08 -21591.133412  -3555.219625 -13022.726526     -6.396512
PR09  10069.563495 -23297.622831  -2028.166521    206.819388
PR10   2503.957824 -22125.321140  12513.536157   -211.628328
PR11  -8105.171480  -8552.363278  22635.044483     12.984508
PR12 -14124.920609  11517.194196  17870.853518     44.361614
PR13 -11480.820278  22282.884278   4713.250700    -50.999830
PR14  -1072.650680  21059.881148 -14352.214226     26.888694
PR15   8985.641943   6970.129868 -22809.178621     76.267230
PR16  13942.761434 -11439.326235 -18006.707334     28.778259
PR17  11707.713684  21413.463227  -7321.213350    118.425349
PR18  17105.596862  16592.949058   9164.188485    160.038241
PR19  14532.261290   5317.490371  20273.611410   -289.866409
PR20   1961.321759 -14039.372237  21207.991446   -118.550456
PR21 -11193.992598 -21515.565859   7964.797210   -131.033837
PR22 -16923.163217 -16154.522139 -10133.576839     56.444705
PR23 -13458.686738  -2185.201588 -21565.822073   -131.601090
PR24  -1244.381848  14747.282759 -20750.308530    -70.335122
PR25 -11026.560387 -21947.628672   6945.044596   -101.038114
PR26 -20706.597493  -4134.502779 -14310.141636     15.922287
EOF
